STARLINK-33871          
1 63994U 25101A   26068.18039046  .00040629  00000+0  14774-2 0  9998
2 63994  43.0021   1.1587 0001047 262.5592  97.5140 15.27590821 46903
KUIPER-00226            
1 67785U 26030X   26068.62629313  .00046834  00000+0  15530-2 0  9998
2 67785  51.8814 220.1252 0017713  64.2781 296.0030 15.30655594  5078
